ATLAS CENTAUR 2         
1 00694U 63047A   26159.37643891  .00001636  00000+0  18673-3 0  9996
2 00694  30.3541  48.6649 0545983 159.8030 202.5084 14.12499913144456
THOR AGENA D R/B        
1 00733U 64002A   26159.78440932  .00000208  00000+0  91558-4 0  9996
2 00733  99.1156 178.0631 0032747 355.3023   4.7848 14.34062470251354
SL-3 R/B                
1 00877U 64053B   26159.77595603  .00000139  00000+0  51180-4 0  9996
2 00877  65.0774  64.1752 0081166 263.7409  95.4441 14.61423117280109
SL-8 R/B                
1 02802U 67045B   26159.78186771  .00000247  00000+0  75887-4 0  9993
2 02802  74.0093 177.9575 0063769 164.4842 195.8292 14.45678837102189
SL-8 R/B                
1 03230U 68040B   26159.33488683  .00003197  00000+0  23416-3 0  9990
2 03230  74.0296 128.3940 0026021 282.9970  76.8313 15.03772487103638
OAO 2                   
1 03597U 68110A   26159.56931165  .00000198  00000+0  58452-4 0  9994
2 03597  34.9926 117.7971 0005895 211.1452 148.8889 14.47348556 32272
ISIS 1                  
1 03669U 69009A   26158.63271488  .00000088  00000+0  65788-4 0  9992
2 03669  88.4419 145.4497 1705984 267.5382  73.0235 11.30432624358698
SERT 2                  
1 04327U 70009A   26159.78541454 -.00000005  00000+0  50180-4 0  9996
2 04327  99.2840  97.9495 0004079 299.6428 115.4531 13.58738620792262
SL-3 R/B                
1 05118U 71028B   26159.76629854  .00048486  00000+0  41786-3 0  9991
2 05118  81.2330 298.8749 0013690 311.5019  48.5062 15.68945662  2920
ASTEX 1                 
1 05560U 71089A   26159.79590738  .00000451  00000+0  11443-3 0  9997
2 05560  92.7000 181.1533 0017314 131.0822 229.1883 14.50845244875517
SL-8 R/B                
1 05730U 71119B   26159.81695330  .00004609  00000+0  23731-3 0  9999
2 05730  73.8882   5.1529 0543825 312.8092  42.8527 14.39453594668596
OAO 3 (COPERNICUS)      
1 06153U 72065A   26158.68268684  .00000325  00000+0  71014-4 0  9991
2 06153  35.0041 144.5608 0006656 182.1687 344.1725 14.60055226859351
ATLAS CENTAUR R/B       
1 06155U 72065B   26159.63068292  .00001171  00000+0  16203-3 0  9990
2 06155  35.0002 132.7037 0032909  55.3668 305.0128 14.77904056854726
SL-8 R/B                
1 08459U 75112B   26159.83299826  .00000170  00000+0  64416-4 0  9994
2 08459  74.0600 211.2427 0016838 279.1683  80.7566 14.38242258644977
SL-3 R/B                
1 10114U 77057B   26159.81256410  .00010428  00000+0  20331-3 0  9999
2 10114  97.5843 335.9495 0005804 321.9733  38.1106 15.47709067682414
SEASAT 1                
1 10967U 78064A   26159.66269477  .00000332  00000+0  13092-3 0  9993
2 10967 108.0164 316.3951 0002054 241.1527 118.9413 14.46237098519664
SL-14 R/B               
1 11267U 79011B   26159.85944226  .00000471  00000+0  43774-4 0  9998
2 11267  82.5243  10.0580 0017419 110.8850 249.4237 14.92006666542374
SL-8 R/B                
1 11574U 79089B   26159.81278578  .00000224  00000+0  75556-4 0  9999
2 11574  74.0695 282.3595 0014844  69.5277 290.7471 14.42400277449246
SL-14 R/B               
1 11672U 80005B   26159.19426659  .00000461  00000+0  43964-4 0  9995
2 11672  82.5147 221.3704 0014717 217.0167 143.0038 14.91021816489978
SL-8 R/B                
1 12139U 81003B   26159.49439921  .00013861  00000+0  34264-3 0  9992
2 12139  82.9375 205.8470 0250375 221.6277 136.5663 15.13964343328403
SL-3 R/B                
1 12465U 81046B   26159.76502868  .00011245  00000+0  24413-3 0  9991
2 12465  81.2302 180.2132 0019249  65.4883 294.8365 15.44024995452474
SL-3 R/B                
1 12904U 81103B   26159.77167530  .00004728  00000+0  20434-3 0  9994
2 12904  81.1578 106.5186 0012441 346.1285  13.9603 15.22216380987080
SL-3 R/B                
1 13068U 82013B   26159.81173994  .00003254  00000+0  13759-3 0  9998
2 13068  81.1745  53.8880 0020843 230.1251 129.8149 15.22735278418211
SL-3 R/B                
1 13154U 82039B   26159.82074675  .00003246  00000+0  19374-3 0  9999
2 13154  81.1422 110.7544 0029857  23.4678 336.7902 15.10487958395394
SL-3 R/B                
1 13403U 82079B   26159.78733913  .00004989  00000+0  19325-3 0  9993
2 13403  81.1459  85.4215 0023071 214.4554 145.5186 15.25721435391585
SL-14 R/B               
1 13553U 82092B   26159.77382882  .00000433  00000+0  45779-4 0  9991
2 13553  82.5687  56.1758 0020410   3.5760  56.9751 14.86742105342465
SL-3 R/B                
1 13819U 83010B   26159.72662176  .00014314  00000+0  26244-3 0  9997
2 13819  81.1020 250.3826 0015900  90.7560 269.5508 15.49011923372028
SL-3 R/B                
1 14208U 83075B   26159.75417894  .00010149  00000+0  25220-3 0  9994
2 14208  97.6108 167.9149 0018815 262.0610  97.8500 15.40342044344169
COSMOS 1536             
1 14699U 84013A   26159.10743468  .00005998  00000+0  23887-3 0  9992
2 14699  82.5452  17.8880 0013283 330.6624  29.3867 15.24959709286394
SL-14 R/B               
1 14820U 84027B   26159.73090083  .00000475  00000+0  51303-4 0  9990
2 14820  82.5406 159.6471 0018860  36.3214 323.9278 14.86053578261153
SL-8 R/B                
1 15483U 85006B   26159.80674391  .00000264  00000+0  96150-4 0  9997
2 15483  74.0456  93.4849 0018555 342.0701  85.4173 14.37831532167129
